NAVSTAR 56 (USA 180)
1 28474U 04045A   26118.86878687 -.00000081  00000+0  00000+0 0  9992
2 28474  55.1643 326.8824 0170057 315.0623 354.0861  2.00553683157433
